CUTE-1 (CO-55)          
1 27844U 03031E   26162.97931317  .00000243  00000+0  12418-3 0  9996
2 27844  98.6735 171.6035 0009162 193.3973 166.6964 14.24332546190935
CUBESAT XI-IV (CO-57)   
1 27848U 03031J   26162.96515925  .00000209  00000+0  11102-3 0  9993
2 27848  98.6768 171.3067 0008710 213.1482 146.9152 14.23618048190631
CUBESAT XI-V            
1 28895U 05043F   26162.96687193  .00001171  00000+0  19211-3 0  9996
2 28895  98.2978 318.4792 0013339 218.0052 142.0215 14.72617350100987
CUTE-1.7+APD II (CO-65) 
1 32785U 08021C   26163.21061662  .00005250  00000+0  33220-3 0  9992
2 32785  97.8272 144.5255 0010282  54.0359 306.1822 15.09408566984442
CANX-2                  
1 32790U 08021H   26163.17080889  .00004113  00000+0  28951-3 0  9997
2 32790  97.8618 142.8505 0011631  65.2553 294.9882 15.05577052984050
SEEDS II (CO-66)        
1 32791U 08021J   26163.23902191  .00019444  00000+0  61967-3 0  9991
2 32791  97.7515 160.9008 0001815  20.0677 340.0635 15.32585967986532
SWISSCUBE               
1 35932U 09051B   26162.21632552  .00000804  00000+0  16844-3 0  9997
2 35932  98.4041  70.0006 0005629 224.4191 135.6559 14.62470076888283
BEESAT-1                
1 35933U 09051C   26163.24945813  .00000781  00000+0  16660-3 0  9999
2 35933  98.3970  70.6975 0003996 236.3504 123.7316 14.61713145888465
ITUPSAT1                
1 35935U 09051E   26162.20832686  .00000614  00000+0  13683-3 0  9996
2 35935  98.4055  68.8386 0006132 256.4621 103.5895 14.60431670887865
TISAT 1                 
1 36799U 10035E   26162.82520251  .00018314  00000+0  60400-3 0  9994
2 36799  98.0703 108.8988 0000614 171.8876 188.2374 15.31505965866883
AEROCUBE 4.5A           
1 38767U 12048K   26163.01794983  .00370769  59291-4  10943-2 0  9996
2 38767  64.6257  45.7635 0019657 218.9240 141.0507 15.92005696371830
STRAND-1                
1 39090U 13009E   26163.25210112  .00000272  00000+0  10585-3 0  9998
2 39090  98.3921 343.6080 0007529 242.0462 117.9963 14.37160588696350
BRITE-AUSTRIA           
1 39091U 13009F   26163.05389077  .00000144  00000+0  63598-4 0  9995
2 39091  98.3993 342.6168 0009000 253.8198 106.1998 14.36540066696314
NEE-01 PEGASO           
1 39151U 13018B   26162.37036833  .00001781  00000+0  17424-3 0  9999
2 39151  98.1214 306.3290 0012644 177.4473 182.6812 14.93633706709836
POPACS 2                
1 39269U 13055E   26163.27779798  .00013920  00000+0  23646-3 0  9995
2 39269  80.9897 149.8112 0417034 209.5515 148.1546 14.91091997662489
POPACS 3                
1 39270U 13055F   26163.24059475  .00010263  00000+0  24130-3 0  9993
2 39270  81.0023 234.5492 0552584  85.0497 281.3520 14.56035159637835
ZACUBE-1 (TSHEPISOSAT)  
1 39417U 13066B   26163.14146462  .00003046  00000+0  23862-3 0  9992
2 39417  97.8084 125.4510 0040270 265.3483  94.3141 15.01158093679977
WNISAT-1                
1 39423U 13066H   26163.13275901  .00000741  00000+0  14393-3 0  9997
2 39423  97.7195 312.6479 0161772 247.6328 110.7662 14.58054552665996
TRITON-1                
1 39427U 13066M   26163.23074494  .00001786  00000+0  21889-3 0  9994
2 39427  97.8248  73.1505 0088378 250.3533 108.8126 14.81688415673357
GOMX-1                  
1 39430U 13066Q   26163.28321212  .00001775  00000+0  27070-3 0  9992
2 39430  97.6492   4.0559 0130190  93.1134 268.4979 14.69441853669197
CUBEBUG-2 (LO-74)       
1 39440U 13066AA  26163.10615375  .00003560  00000+0  33078-3 0  9999
2 39440  97.8899 112.0627 0058835  45.4296 315.1704 14.93719997676234
NEE-02 KRYSAOR          
1 39441U 13066AB  26162.82452947  .00001879  00000+0  20954-3 0  9992
2 39441  97.8890 102.0776 0067744  87.3713 273.5255 14.86594877675404
FUNCUBE-1 (AO-73)       
1 39444U 13066AE  26162.55441071  .00005554  00000+0  34659-3 0  9992
2 39444  97.8262 133.8824 0035145 220.5848 139.2760 15.09420112678819
UWE-3                   
1 39446U 13066AG  26163.13573377  .00003881  00000+0  33490-3 0  9997
2 39446  97.8685 119.1754 0048384 337.9984  21.9160 14.96983655676823
BRITE-CA1 (TORONTO)     
1 40020U 14033L   26163.28166381  .00000655  00000+0  10626-3 0  9993
2 40020  97.9732 292.3002 0077322 293.0076  66.2990 14.72670377641491
DUCHIFAT-1              
1 40021U 14033M   26163.09548070  .00095136  00000+0  10168-2 0  9990
2 40021  98.0477 221.5443 0003958 124.7307 235.4323 15.63580933654958
NANOSATC-BR1            
1 40024U 14033Q   26163.04340946  .00016177  00000+0  53744-3 0  9996
2 40024  98.0728 194.9756 0003906 176.4162 183.7106 15.31293253653196
QB50P1                  
1 40025U 14033R   26163.27290574  .00008177  00000+0  40334-3 0  9995
2 40025  98.0962 174.0743 0007350 234.6928 125.3617 15.18187953652288
QB50P2                  
1 40032U 14033Y   26163.21296600  .00007445  00000+0  40125-3 0  9998
2 40032  98.0746 159.7835 0007474 179.7107 180.4130 15.15096941651917
PERSEUS-M2              
1 40037U 14033AD  26163.24573514  .00000800  00000+0  77760-4 0  9992
2 40037  97.9958 113.6857 0011212 322.9577  37.0868 14.95494827650046
